EUTELSAT QUANTUM        
1 49056U 21069B   25254.90322729  .00000122  00000+0  00000+0 0  9997
2 49056   0.0397 314.1534 0002354 246.9144 162.9561  1.00271264 15133
EUTELSAT KONNECT VHTS   
1 53765U 22110A   25254.87398578  .00000012  00000+0  00000+0 0  9996
2 53765   0.0531 104.2690 0002596  58.0056 146.1778  1.00269476  4031
EUTELSAT HOTBIRD 13F    
1 54048U 22134A   25254.87597911  .00000083  00000+0  00000+0 0  9997
2 54048   0.0567 292.0458 0001933  63.9518 323.4900  1.00271416 10586
EUTELSAT HOTBIRD 13G    
1 54225U 22146A   25254.87597911  .00000083  00000+0  00000+0 0  9997
2 54225   0.0476 229.2934 0002074 313.8872 136.3066  1.00271883  4675
EUTELSAT 10B            
1 54259U 22157A   25254.87537244  .00000063  00000+0  00000+0 0  9997
2 54259   0.0550 102.8599 0001692   3.5119 209.8846  1.00268252 10226
EUTELSAT 36D            
1 59346U 24059A   25254.87544888  .00000151  00000+0  00000+0 0  9992
2 59346   0.0043 123.2343 0000377 114.7131 104.2073  1.00270740  5350
